{
  "type": "FeatureCollection",
  "features": [
    {
      "type": "Feature",
      "properties": {
        "norad_id": 31307,
        "name": "GALAXY 17 (G-17)",
        "group": "intelsat",
        "lat": -2.419057239663396,
        "lon": -22.494497581275933,
        "alt_km": 35786.63750538793,
        "timestamp": "2025-12-12T22:42:12.217595+00:00",
        "meta_object_name": "GALAXY 17 (G-17)",
        "meta_object_id": "2007-016B",
        "meta_epoch": "2025-12-12T06:13:37.834752",
        "meta_mean_motion": 1.00272492,
        "meta_eccentricity": 0.00058541,
        "meta_inclination": 2.4992,
        "meta_ra_of_asc_node": 82.2905,
        "meta_arg_of_pericenter": 164.1965,
        "meta_mean_anomaly": 203.146,
        "meta_ephemeris_type": 0,
        "meta_classification_type": "U",
        "meta_norad_cat_id": 31307,
        "meta_element_set_no": 999,
        "meta_rev_at_epoch": 6793,
        "meta_bstar": 0,
        "meta_mean_motion_dot": -1.97e-06,
        "meta_mean_motion_ddot": 0,
        "tle_line1": "1 31307U 07016B   25346.25946568 -.00000197  00000+0  00000+0 0  9999",
        "tle_line2": "2 31307   2.4992  82.2905 0005854 164.1965 203.1460  1.00272492 67930"
      },
      "geometry": {
        "type": "Point",
        "coordinates": [
          -22.494497581275933,
          -2.419057239663396
        ]
      }
    },
    {
      "type": "Feature",
      "properties": {
        "norad_id": 31862,
        "name": "DIRECTV 10",
        "group": "intelsat",
        "lat": 0.0016737515202704552,
        "lon": -40.35081193253356,
        "alt_km": 35786.22373176943,
        "timestamp": "2025-12-12T22:42:12.217606+00:00",
        "meta_object_name": "DIRECTV 10",
        "meta_object_id": "2007-032A",
        "meta_epoch": "2025-12-11T14:44:08.030112",
        "meta_mean_motion": 1.00271436,
        "meta_eccentricity": 3.191e-05,
        "meta_inclination": 0.0124,
        "meta_ra_of_asc_node": 167.5307,
        "meta_arg_of_pericenter": 60.5816,
        "meta_mean_anomaly": 330.7109,
        "meta_ephemeris_type": 0,
        "meta_classification_type": "U",
        "meta_norad_cat_id": 31862,
        "meta_element_set_no": 999,
        "meta_rev_at_epoch": 4371,
        "meta_bstar": 0,
        "meta_mean_motion_dot": -9.6e-07,
        "meta_mean_motion_ddot": 0,
        "tle_line1": "1 31862U 07032A   25345.61398183 -.00000096  00000+0  00000+0 0  9994",
        "tle_line2": "2 31862   0.0124 167.5307 0000319  60.5816 330.7109  1.00271436 43719"
      },
      "geometry": {
        "type": "Point",
        "coordinates": [
          -40.35081193253356,
          0.0016737515202704552
        ]
      }
    },
    {
      "type": "Feature",
      "properties": {
        "norad_id": 32253,
        "name": "INTELSAT 11 (IS-11)",
        "group": "intelsat",
        "lat": -1.3800082559628288,
        "lon": -72.76511727530703,
        "alt_km": 36103.710843652734,
        "timestamp": "2025-12-12T22:42:12.217618+00:00",
        "meta_object_name": "INTELSAT 11 (IS-11)",
        "meta_object_id": "2007-044B",
        "meta_epoch": "2025-12-12T06:00:16.613856",
        "meta_mean_motion": 0.99048636,
        "meta_eccentricity": 0.00089075,
        "meta_inclination": 3.0792,
        "meta_ra_of_asc_node": 80.9819,
        "meta_arg_of_pericenter": 165.6758,
        "meta_mean_anomaly": 152.442,
        "meta_ephemeris_type": 0,
        "meta_classification_type": "U",
        "meta_norad_cat_id": 32253,
        "meta_element_set_no": 999,
        "meta_rev_at_epoch": 6659,
        "meta_bstar": 0,
        "meta_mean_motion_dot": 8e-07,
        "meta_mean_motion_ddot": 0,
        "tle_line1": "1 32253U 07044B   25346.25019229  .00000080  00000+0  00000+0 0  9996",
        "tle_line2": "2 32253   3.0792  80.9819 0008907 165.6758 152.4420  0.99048636 66594"
      },
      "geometry": {
        "type": "Point",
        "coordinates": [
          -72.76511727530703,
          -1.3800082559628288
        ]
      }
    },
    {
      "type": "Feature",
      "properties": {
        "norad_id": 32388,
        "name": "HORIZONS-2",
        "group": "intelsat",
        "lat": -2.1130083076409716,
        "lon": -11.31620452050388,
        "alt_km": 35781.960010931885,
        "timestamp": "2025-12-12T22:42:12.217630+00:00",
        "meta_object_name": "HORIZONS-2",
        "meta_object_id": "2007-063B",
        "meta_epoch": "2025-12-12T06:16:52.524192",
        "meta_mean_motion": 1.00269956,
        "meta_eccentricity": 0.00049084,
        "meta_inclination": 2.1205,
        "meta_ra_of_asc_node": 82.9663,
        "meta_arg_of_pericenter": 189.6669,
        "meta_mean_anomaly": 189.0005,
        "meta_ephemeris_type": 0,
        "meta_classification_type": "U",
        "meta_norad_cat_id": 32388,
        "meta_element_set_no": 999,
        "meta_rev_at_epoch": 6594,
        "meta_bstar": 0,
        "meta_mean_motion_dot": -2.43e-06,
        "meta_mean_motion_ddot": 0,
        "tle_line1": "1 32388U 07063B   25346.26171903 -.00000243  00000+0  00000+0 0  9997",
        "tle_line2": "2 32388   2.1205  82.9663 0004908 189.6669 189.0005  1.00269956 65941"
      },
      "geometry": {
        "type": "Point",
        "coordinates": [
          -11.31620452050388,
          -2.1130083076409716
        ]
      }
    },
    {
      "type": "Feature",
      "properties": {
        "norad_id": 32729,
        "name": "DIRECTV 11",
        "group": "intelsat",
        "lat": 0.016206753463801637,
        "lon": -36.76086173993883,
        "alt_km": 35787.970415618074,
        "timestamp": "2025-12-12T22:42:12.217642+00:00",
        "meta_object_name": "DIRECTV 11",
        "meta_object_id": "2008-013A",
        "meta_epoch": "2025-12-11T21:35:58.588224",
        "meta_mean_motion": 1.00271084,
        "meta_eccentricity": 5.41e-05,
        "meta_inclination": 0.0355,
        "meta_ra_of_asc_node": 183.5345,
        "meta_arg_of_pericenter": 2.2866,
        "meta_mean_anomaly": 119.8352,
        "meta_ephemeris_type": 0,
        "meta_classification_type": "U",
        "meta_norad_cat_id": 32729,
        "meta_element_set_no": 999,
        "meta_rev_at_epoch": 4371,
        "meta_bstar": 0,
        "meta_mean_motion_dot": -1.17e-06,
        "meta_mean_motion_ddot": 0,
        "tle_line1": "1 32729U 08013A   25345.89998366 -.00000117  00000+0  00000+0 0  9990",
        "tle_line2": "2 32729   0.0355 183.5345 0000541   2.2866 119.8352  1.00271084 43718"
      },
      "geometry": {
        "type": "Point",
        "coordinates": [
          -36.76086173993883,
          0.016206753463801637
        ]
      }
    },
    {
      "type": "Feature",
      "properties": {
        "norad_id": 32951,
        "name": "GALAXY 18 (G-18)",
        "group": "intelsat",
        "lat": -0.02228767953983496,
        "lon": -60.572293145970136,
        "alt_km": 35776.060693759166,
        "timestamp": "2025-12-12T22:42:12.217653+00:00",
        "meta_object_name": "GALAXY 18 (G-18)",
        "meta_object_id": "2008-024A",
        "meta_epoch": "2025-12-12T06:02:46.375296",
        "meta_mean_motion": 1.00270121,
        "meta_eccentricity": 0.0002921,
        "meta_inclination": 0.0202,
        "meta_ra_of_asc_node": 335.0381,
        "meta_arg_of_pericenter": 292.1416,
        "meta_mean_anomaly": 141.6988,
        "meta_ephemeris_type": 0,
        "meta_classification_type": "U",
        "meta_norad_cat_id": 32951,
        "meta_element_set_no": 999,
        "meta_rev_at_epoch": 4397,
        "meta_bstar": 0,
        "meta_mean_motion_dot": 0,
        "meta_mean_motion_ddot": 0,
        "tle_line1": "1 32951U 08024A   25346.25192564  .00000000  00000+0  00000+0 0  9996",
        "tle_line2": "2 32951   0.0202 335.0381 0002921 292.1416 141.6988  1.00270121 43972"
      },
      "geometry": {
        "type": "Point",
        "coordinates": [
          -60.572293145970136,
          -0.02228767953983496
        ]
      }
    },
    {
      "type": "Feature",
      "properties": {
        "norad_id": 33153,
        "name": "INTELSAT 25 (IS-25)",
        "group": "intelsat",
        "lat": -1.7325890413550398,
        "lon": 31.005758888720774,
        "alt_km": 35799.78458810459,
        "timestamp": "2025-12-12T22:42:12.217665+00:00",
        "meta_object_name": "INTELSAT 25 (IS-25)",
        "meta_object_id": "2008-034A",
        "meta_epoch": "2025-12-12T06:28:58.865664",
        "meta_mean_motion": 1.00271837,
        "meta_eccentricity": 0.00050272,
        "meta_inclination": 2.2268,
        "meta_ra_of_asc_node": 82.6549,
        "meta_arg_of_pericenter": 179.1825,
        "meta_mean_anomaly": 245.135,
        "meta_ephemeris_type": 0,
        "meta_classification_type": "U",
        "meta_norad_cat_id": 33153,
        "meta_element_set_no": 999,
        "meta_rev_at_epoch": 6382,
        "meta_bstar": 0,
        "meta_mean_motion_dot": -2.14e-06,
        "meta_mean_motion_ddot": 0,
        "tle_line1": "1 33153U 08034A   25346.27012576 -.00000214  00000+0  00000+0 0  9996",
        "tle_line2": "2 33153   2.2268  82.6549 0005027 179.1825 245.1350  1.00271837 63826"
      },
      "geometry": {
        "type": "Point",
        "coordinates": [
          31.005758888720774,
          -1.7325890413550398
        ]
      }
    }
  ]
}